ES'HAIL 1               
1 39233U 13044A   22055.84729493  .00000137  00000+0  00000+0 0  9991
2 39233   0.0529   7.4291 0001323 325.8350 151.8940  1.00272171 30862
GSAT-7                  
1 39234U 13044B   22055.85813264 -.00000083  00000+0  00000+0 0  9994
2 39234   0.0604 272.4598 0008249  12.9953 252.1411  1.00271514 29550
AMOS-4                  
1 39237U 13045A   22055.83591226  .00000002  00000+0  00000+0 0  9997
2 39237   0.0561 272.7463 0002998  68.4761 179.3441  1.00271279 31180
AEHF-3 (USA 246)        
1 39256U 13050A   22055.81127382  .00000129  00000+0  00000+0 0  9990
2 39256   1.4404  69.2163 0055068 188.8335  33.6017  1.00275806 29894
ASTRA 2E                
1 39285U 13056A   22056.27843287  .00000143  00000+0  00000+0 0  9994
2 39285   0.0667 334.6582 0003052 357.6003 311.5219  1.00272117 30818
FM-6                    
1 39360U 13058A   22055.96261589 -.00000023  00000+0  00000+0 0  9992
2 39360   0.0339 264.4921 0000338 323.1911 157.4743  1.00273534 30571
RADUGA-1M 3             
1 39375U 13062A   22056.20804780  .00000148  00000+0  00000+0 0  9994
2 39375   1.9523  91.1639 0003829  89.9598  83.7961  1.00273885 30357
SES-8                   
1 39460U 13071A   22056.43525113 -.00000278  00000+0  00000+0 0  9999
2 39460   0.0471 262.5924 0001763 123.3835  20.9630  1.00272407 30105
INMARSAT 5-F1           
1 39476U 13073A   22056.08582657  .00000022  00000+0  00000+0 0  9991
2 39476   0.0185 132.8122 0000248  55.1345  60.4591  1.00268972 30150
TKSAT-1 (TUPAC KATARI)  
1 39481U 13075A   22056.04015285 -.00000201  00000+0  00000+0 0  9993
2 39481   0.0141 281.5225 0002927  62.1523  98.4259  1.00269674 30079
EXPRESS-AM5             
1 39487U 13077A   22055.65480440 -.00000285  00000+0  00000+0 0  9998
2 39487   0.0379 297.8541 0000938 124.6072 107.7647  1.00270942 30572
GSAT-14                 
1 39498U 14001A   22056.07224912 -.00000083  00000+0  00000+0 0  9991
2 39498   0.0875 270.2213 0004603  16.9838 327.7089  1.00270989 29801
THAICOM 6               
1 39500U 14002A   22056.07320852 -.00000128  00000+0  00000+0 0  9996
2 39500   0.0545 125.9956 0001649 300.5516 193.2358  1.00272147 29747
TDRS 12                 
1 39504U 14004A   22056.26465238 -.00000272  00000+0  00000+0 0  9991
2 39504   3.9597 345.3931 0002597  67.5549 156.4904  1.00268294 29678
ABS-2                   
1 39508U 14006A   22056.07242358 -.00000092  00000+0  00000+0 0  9992
2 39508   0.0574 302.6766 0003760  39.1353 274.0723  1.00270572 29542
ATHENA-FIDUS            
1 39509U 14006B   22055.84973704  .00000148  00000+0  00000+0 0  9994
2 39509   0.0161 207.3547 0001353 171.7501 119.2733  1.00273368 29308
TURKSAT 4A              
1 39522U 14007A   22055.85060921  .00000140  00000+0  00000+0 0  9991
2 39522   0.0674 275.1794 0003856  32.0838 195.6057  1.00270854 29215
EXPRESS-AT1             
1 39612U 14010A   22055.92511207  .00000073  00000+0  00000+0 0  9996
2 39612   0.0426 293.5490 0000770 162.8693  87.3651  1.00270958 29278
EXPRESS-AT2             
1 39613U 14010B   22055.94185797 -.00000288  00000+0  00000+0 0  9999
2 39613   0.0414 291.0962 0000340 159.6390 182.9456  1.00270756 29107
AMAZONAS 4A             
1 39616U 14011A   22056.04276937 -.00000259  00000+0  00000+0 0  9990
2 39616   0.0792  87.8475 0002773 250.5371 117.8581  1.00270505 29097
ASTRA 5B                
1 39617U 14011B   22055.84851597  .00000149  00000+0  00000+0 0  9996
2 39617   0.0686 304.6156 0003261  17.7491 169.2401  1.00270857 28894
IRNSS-1B                
1 39635U 14017A   22049.55000584  .00000121  00000+0  00000+0 0  9995
2 39635  28.9834 267.0838 0019334 176.4961 317.9464  1.00272410 28955
LUCH 5V                 
1 39727U 14023A   22055.78929483 -.00000275  00000+0  00000+0 0  9995
2 39727   1.2368  72.9975 0002588 314.4747 146.0272  1.00272459 28587
KAZSAT-3                
1 39728U 14023B   22055.97063185  .00000053  00000+0  00000+0 0  9998
2 39728   0.0096 151.2024 0000254   0.9516  50.5806  1.00280968 28663
EUTELSAT 3B             
1 39773U 14030A   22055.91201521  .00000013  00000+0  00000+0 0  9994
2 39773   0.0653 351.2100 0002627 218.5022 276.4436  1.00269875 28442
ASIASAT 8 (AMOS-7)      
1 40107U 14046A   22056.06338243 -.00000040  00000+0  00000+0 0  9994
2 40107   0.0136 192.6406 0001870 146.5434 194.6364  1.00271873 27725
ASIASAT 6               
1 40141U 14052A   22055.93784594 -.00000368  00000+0  00000+0 0  9991
2 40141   0.0422 288.5961 0000374 353.3969 330.2966  1.00269366 27383
OPTUS 10                
1 40146U 14054A   22056.50483015 -.00000156  00000+0  00000+0 0  9991
2 40146   0.0673 296.9215 0002044  31.4900 164.6321  1.00270106 27351
MEASAT-3B               
1 40147U 14054B   22056.07573785 -.00000248  00000+0  00000+0 0  9990
2 40147   0.0343 313.0611 0002674  35.5920 284.9866  1.00270832 27393
LUCH (OLYMP)            
1 40258U 14058A   22056.72827247  .00000025  00000+0  00000+0 0  9996
2 40258   0.0097 136.2004 0000415  49.0382 294.3513  1.00272117 27174
HIMAWARI-8              
1 40267U 14060A   22056.45604779 -.00000284  00000+0  00000+0 0  9990
2 40267   0.0306 263.0164 0000973 136.1100  60.9657  1.00270047 27095
IRNSS-1C                
1 40269U 14061A   22055.88879139 -.00000169  00000+0  00000+0 0  9995
2 40269   2.7318 134.0713 0017211   7.3059  56.3515  1.00272650 26915
INTELSAT 30 (IS-30)     
1 40271U 14062A   22055.97985755 -.00000157  00000+0  00000+0 0  9998
2 40271   0.0223 123.8777 0002522 355.2749 293.3641  1.00270428 26992
ARSAT 1                 
1 40272U 14062B   22056.40202101 -.00000268  00000+0  00000+0 0  9998
2 40272   0.0062 200.2563 0001235 137.5399 250.3415  1.00272090 27113
EXPRESS-AM6             
1 40277U 14064A   22056.21153654  .00000091  00000+0  00000+0 0  9995
2 40277   0.0478 293.0037 0000265  80.6953 270.4812  1.00271160 26896
GSAT-16                 
1 40332U 14078A   22056.06849875  .00000078  00000+0  00000+0 0  9997
2 40332   0.1068 270.1517 0004085 172.4152 152.0340  1.00271653 26481
DIRECTV 14              
1 40333U 14078B   22056.54424951 -.00000134  00000+0  00000+0 0  9999
2 40333   0.0232 106.2971 0000161  61.6546  84.1070  1.00271744 26479
YAMAL 401               
1 40345U 14082A   22056.07547619 -.00000235  00000+0  00000+0 0  9994
2 40345   0.0125 173.0453 0000826 270.3431 188.6119  1.00275476 26638
ASTRA 2G                
1 40364U 14089A   22055.84781823  .00000144  00000+0  00000+0 0  9991
2 40364   0.0413 329.4825 0004136  59.7293  98.8434  1.00271247 26197
FENGYUN 2G              
1 40367U 14090A   22055.86196612 -.00000304  00000+0  00000+0 0  9993
2 40367   1.6520  90.5360 0004116 323.6822 149.9578  1.00258806 26222
MUOS-3                  
1 40374U 15002A   22056.41335938 -.00000135  00000+0  00000+0 0  9995
2 40374   2.5359   8.3200 0052233 179.3094 100.9764  1.00271801 26055
INMARSAT 5-F2           
1 40384U 15005A   22055.97473921 -.00000292  00000+0  00000+0 0  9998
2 40384   0.0185 129.9693 0000323 199.8976 120.8152  1.00271195 25902
ABS-3A                  
1 40424U 15010A   22056.33591162 -.00000035  00000+0  00000+0 0  9993
2 40424   0.0180 113.2799 0001982 147.1908  12.6139  1.00270826 25608
EUTELSAT 115 WEST B     
1 40425U 15010B   22055.96287755 -.00000031  00000+0  00000+0 0  9998
2 40425   0.0083 259.1103 0000343  30.2651  97.1415  1.00272720 25663
EXPRESS-AM7             
1 40505U 15012A   22056.06544610  .00000144  00000+0  00000+0 0  9991
2 40505   0.0122 158.8945 0003031 164.7920 254.7714  1.00267269 25580
IRNSS-1D                
1 40547U 15018A   22056.00979837 -.00000262  00000+0  00000+0 0  9992
2 40547  28.8016 267.0163 0020138 176.2991 186.7017  1.00277892 25475
BEIDOU 17               
1 40549U 15019A   22055.92901141 -.00000171  00000+0  00000+0 0  9997
2 40549  52.0768 314.0629 0035297 190.1645  80.6047  1.00266402 25305
THOR 7                  
1 40613U 15022A   22055.84206184 -.00000014  00000+0  00000+0 0  9995
2 40613   0.0181 212.7369 0002528 131.0277 113.3756  1.00271351 25030
TURKMENALEM52E/MONACOSAT
1 40617U 15023A   22055.92432712  .00000098  00000+0  00000+0 0  9998
2 40617   0.0144 131.7248 0002250 209.7233 198.0853  1.00267930 25054
DIRECTV 15              
1 40663U 15026A   22055.67817889 -.00000107  00000+0  00000+0 0  9998
2 40663   0.0156 119.6993 0000411  27.5583 148.5151  1.00271492 24688
SKY MEXICO-1            
1 40664U 15026B   22056.40062551 -.00000242  00000+0  00000+0 0  9999
2 40664   0.0161 109.2120 0002050 247.6013 223.8558  1.00271836 24765
METEOSAT-11 (MSG-4)     
1 40732U 15034A   22056.34463146 -.00000008  00000+0  00000+0 0  9992
2 40732   0.1960 348.5015 0001522  80.9793 209.9976  1.00280069 24257
STAR ONE C4             
1 40733U 15034B   22055.82828137 -.00000270  00000+0  00000+0 0  9991
2 40733   0.0287  48.1504 0003589 317.8601  16.8194  1.00270819 24248
WGS F7 (USA 263)        
1 40746U 15036A   22056.09230931  .00000011  00000+0  00000+0 0  9998
2 40746   0.0197 221.2627 0000100  14.4973 127.3878  1.00271568 24092
INTELSAT 34 (IS-34)     
1 40874U 15039A   22055.83115957 -.00000291  00000+0  00000+0 0  9995
2 40874   0.0076 240.5857 0000473 299.9315 217.8576  1.00269471 23844
EUTELSAT 8 WEST B       
1 40875U 15039B   22055.84066635 -.00000071  00000+0  00000+0 0  9991
2 40875   0.0673  16.7254 0004479 350.0307  82.5389  1.00271769 23888
GSAT-6                  
1 40880U 15041A   22056.43280903 -.00000168  00000+0  00000+0 0  9999
2 40880   0.1122 278.6290 0000785   8.8224 106.1523  1.00270929 23830
INMARSAT 5-F3           
1 40882U 15042A   22056.09335591  .00000043  00000+0  00000+0 0  9999
2 40882   0.0187 131.3186 0000173  25.6894 211.0952  1.00269914 23780
MUOS-4                  
1 40887U 15044A   22055.85778542 -.00000098  00000+0  00000+0 0  9997
2 40887   2.5578   3.3493 0058041 358.2231 176.9430  1.00271273 23783
